COMMENT,ORIGINATOR,NORAD_CAT_ID,OBJECT_NAME,OBJECT_TYPE,CLASSIFICATION_TYPE,INTLDES,EPOCH,EPOCH_MICROSECONDS,MEAN_MOTION,ECCENTRICITY,INCLINATION,RA_OF_ASC_NODE,ARG_OF_PERICENTER,MEAN_ANOMALY,EPHEMERIS_TYPE,ELEMENT_SET_NO,REV_AT_EPOCH,BSTAR,MEAN_MOTION_DOT,MEAN_MOTION_DDOT,FILE,TLE_LINE0,TLE_LINE1,TLE_LINE2,OBJECT_ID,OBJECT_NUMBER,SEMIMAJOR_AXIS,PERIOD,APOGEE,PERIGEE,DECAYED,date
GENERATED VIA SPACETRACK.ORG API,18 SPCS,48899,SPACEBEE-110,PAYLOAD,U,21059W,2023/3/25 21:11,240192,15.2690056,0.0008537,97.5852,220.7717,204.6863,155.3968,0,999,9669,0.001675,0.00044441,0,3871104,0 SPACEBEE-110,1 48899U 21059W   23084.88281528  .00044441  00000-0  16750-2 0  9992,2 48899  97.5852 220.7717 0008537 204.6863 155.3968 15.26900560 96695,2021-059W,48899,6863.221,94.309,490.945,479.227,0,
GENERATED VIA SPACETRACK.ORG API,18 SPCS,48899,SPACEBEE-110,PAYLOAD,U,21059W,2023/3/26 3:28,640256,15.26921546,0.0008695,97.5854,221.0379,203.5191,156.5651,0,999,9673,0.0016233,0.00043088,0,3871366,0 SPACEBEE-110,1 48899U 21059W   23085.14494954  .00043088  00000-0  16233-2 0  9993,2 48899  97.5854 221.0379 0008695 203.5191 156.5651 15.26921546 96736,2021-059W,48899,6863.158,94.307,490.991,479.056,0,
GENERATED VIA SPACETRACK.ORG API,18 SPCS,48899,SPACEBEE-110,PAYLOAD,U,21059W,2023/3/26 22:21,207488,15.2698083,0.0008717,97.5854,221.8373,201.1364,158.9515,0,999,9685,0.0014274,0.00037921,0,3871964,0 SPACEBEE-110,1 48899U 21059W   23085.93133342  .00037921  00000-0  14274-2 0  9993,2 48899  97.5854 221.8373 0008717 201.1364 158.9515 15.26980830 96858,2021-059W,48899,6862.981,94.304,490.828,478.863,0,
GENERATED VIA SPACETRACK.ORG API,18 SPCS,48899,SPACEBEE-110,PAYLOAD,U,21059W,2023/3/27 7:47,925792,15.27013581,0.0008711,97.5853,222.2367,199.8905,160.1995,0,999,9691,0.0014975,0.00039837,0,3872516,0 SPACEBEE-110,1 48899U 21059W   23086.32451303  .00039837  00000-0  14975-2 0  9993,2 48899  97.5853 222.2367 0008711 199.8905 160.1995 15.27013581 96918,2021-059W,48899,6862.883,94.302,490.726,478.769,0,
GENERATED VIA SPACETRACK.ORG API,18 SPCS,48899,SPACEBEE-110,PAYLOAD,U,21059W,2023/3/27 7:47,925792,15.27013581,0.0008711,97.5853,222.2367,199.8905,160.1995,0,999,9691,0.0014975,0.00039837,0,3872569,0 SPACEBEE-110,1 48899U 21059W   23086.32451303  .00039837  00000-0  14975-2 0  9993,2 48899  97.5853 222.2367 0008711 199.8905 160.1995 15.27013581 96918,2021-059W,48899,6862.883,94.302,490.726,478.769,0,
GENERATED VIA SPACETRACK.ORG API,18 SPCS,48899,SPACEBEE-110,PAYLOAD,U,21059W,2023/3/27 21:56,705088,15.27060897,0.0008682,97.5853,222.8362,197.7937,162.2999,0,999,9700,0.0014591,0.00038864,0,3872915,0 SPACEBEE-110,1 48899U 21059W   23086.91426742  .00038864  00000-0  14591-2 0  9990,2 48899  97.5853 222.8362 0008682 197.7937 162.2999 15.27060897 97008,2021-059W,48899,6862.741,94.299,490.564,478.648,0,
GENERATED VIA SPACETRACK.ORG API,18 SPCS,48899,SPACEBEE-110,PAYLOAD,U,21059W,2023/3/28 4:13,736928,15.2708325,0.0008706,97.5855,223.1025,196.6174,163.4781,0,999,9704,0.001539,0.00041036,0,3873565,0 SPACEBEE-110,1 48899U 21059W   23087.17637427  .00041036  00000-0  15390-2 0  9996,2 48899  97.5855 223.1025 0008706 196.6174 163.4781 15.27083250 97042,2021-059W,48899,6862.674,94.297,490.514,478.564,0,
GENERATED VIA SPACETRACK.ORG API,18 SPCS,48899,SPACEBEE-110,PAYLOAD,U,21059W,2023/3/28 21:31,598432,15.27148012,0.0008688,97.5856,223.8352,194.2686,165.8308,0,999,9715,0.0016129,0.00043106,0,3873877,0 SPACEBEE-110,1 48899U 21059W   23087.89714813  .00043106  00000-0  16129-2 0  9991,2 48899  97.5856 223.8352 0008688 194.2686 165.8308 15.27148012 97155,2021-059W,48899,6862.48,94.293,490.307,478.383,0,
GENERATED VIA SPACETRACK.ORG API,18 SPCS,48899,SPACEBEE-110,PAYLOAD,U,21059W,2023/3/28 21:31,598432,15.27148012,0.0008688,97.5856,223.8352,194.2686,165.8308,0,999,9715,0.0016129,0.00043106,0,3873921,0 SPACEBEE-110,1 48899U 21059W   23087.89714813  .00043106  00000-0  16129-2 0  9991,2 48899  97.5856 223.8352 0008688 194.2686 165.8308 15.27148012 97155,2021-059W,48899,6862.48,94.293,490.307,478.383,0,
GENERATED VIA SPACETRACK.ORG API,18 SPCS,48899,SPACEBEE-110,PAYLOAD,U,21059W,2023/3/29 8:32,713568,15.27189154,0.0008671,97.5854,224.3014,192.7499,167.3522,0,999,9722,0.0016742,0.00044813,0,3874492,0 SPACEBEE-110,1 48899U 21059W   23088.35580687  .00044813  00000-0  16742-2 0  9990,2 48899  97.5854 224.3014 0008671 192.7499 167.3522 15.27189154 97226,2021-059W,48899,6862.357,94.291,490.172,478.271,0,
GENERATED VIA SPACETRACK.ORG API,18 SPCS,48899,SPACEBEE-110,PAYLOAD,U,21059W,2023/3/29 14:49,853248,15.27213784,0.0008658,97.5852,224.568,191.775,168.3287,0,999,9726,0.001729,0.00046326,0,3874790,0 SPACEBEE-110,1 48899U 21059W   23088.61789182  .00046326  00000-0  17290-2 0  9990,2 48899  97.5852 224.5680 0008658 191.7750 168.3287 15.27213784 97269,2021-059W,48899,6862.283,94.289,490.089,478.207,0,
GENERATED VIA SPACETRACK.ORG API,18 SPCS,48899,SPACEBEE-110,PAYLOAD,U,21059W,2023/3/30 0:15,372864,15.27250383,0.0008648,97.5851,224.9677,190.6963,169.4093,0,999,9732,0.0017246,0.00046258,0,3875077,0 SPACEBEE-110,1 48899U 21059W   23089.01101126  .00046258  00000-0  17246-2 0  9996,2 48899  97.5851 224.9677 0008648 190.6963 169.4093 15.27250383 97321,2021-059W,48899,6862.173,94.287,489.973,478.104,0,
GENERATED VIA SPACETRACK.ORG API,18 SPCS,48899,SPACEBEE-110,PAYLOAD,U,21059W,2023/3/30 8:07,351904,15.27282287,0.0008627,97.5851,225.3008,189.8239,170.2832,0,999,9737,0.0017864,0.00047976,0,3875726,0 SPACEBEE-110,1 48899U 21059W   23089.33860361  .00047976  00000-0  17864-2 0  9998,2 48899  97.5851 225.3008 0008627 189.8239 170.2832 15.27282287 97371,2021-059W,48899,6862.078,94.285,489.863,478.023,0,
GENERATED VIA SPACETRACK.ORG API,18 SPCS,48899,SPACEBEE-110,PAYLOAD,U,21059W,2023/3/31 4:34,955072,15.27367468,0.0008469,97.5853,226.1671,187.2955,172.8162,0,999,9750,0.0019362,0.00052167,0,3875992,0 SPACEBEE-110,1 48899U 21059W   23090.19031198  .00052167  00000-0  19362-2 0  9995,2 48899  97.5853 226.1671 0008469 187.2955 172.8162 15.27367468 97503,2021-059W,48899,6861.823,94.28,489.499,477.876,0,
GENERATED VIA SPACETRACK.ORG API,18 SPCS,48899,SPACEBEE-110,PAYLOAD,U,21059W,2023/4/1 8:52,728448,15.27478967,0.0008573,97.5855,227.3661,182.8285,177.2906,0,999,9768,0.0017188,0.00046423,0,3877223,0 SPACEBEE-110,1 48899U 21059W   23091.36952232  .00046423  00000-0  17188-2 0  9998,2 48899  97.5855 227.3661 0008573 182.8285 177.2906 15.27478967 97681,2021-059W,48899,6861.489,94.273,489.236,477.471,0,
GENERATED VIA SPACETRACK.ORG API,18 SPCS,48899,SPACEBEE-110,PAYLOAD,U,21059W,2023/4/1 8:52,728448,15.27478967,0.0008573,97.5855,227.3661,182.8285,177.2906,0,999,9768,0.0017188,0.00046423,0,3877270,0 SPACEBEE-110,1 48899U 21059W   23091.36952232  .00046423  00000-0  17188-2 0  9998,2 48899  97.5855 227.3661 0008573 182.8285 177.2906 15.27478967 97681,2021-059W,48899,6861.489,94.273,489.236,477.471,0,
GENERATED VIA SPACETRACK.ORG API,18 SPCS,48899,SPACEBEE-110,PAYLOAD,U,21059W,2023/4/2 8:27,650624,15.27562868,0.0008573,97.5856,228.3654,179.6576,180.467,0,999,9783,0.0016962,0.00045926,0,3878126,0 SPACEBEE-110,1 48899U 21059W   23092.35213716  .00045926  00000-0  16962-2 0  9991,2 48899  97.5856 228.3654 0008573 179.6576 180.4670 15.27562868 97837,2021-059W,48899,6861.237,94.268,488.985,477.22,0,
GENERATED VIA SPACETRACK.ORG API,18 SPCS,48899,SPACEBEE-110,PAYLOAD,U,21059W,2023/4/2 21:01,612448,15.27602378,0.0008565,97.5856,228.8985,178.1267,182.0005,0,999,9791,0.0013693,0.00037061,0,3878375,0 SPACEBEE-110,1 48899U 21059W   23092.87617607  .00037061  00000-0  13693-2 0  9994,2 48899  97.5856 228.8985 0008565 178.1267 182.0005 15.27602378 97911,2021-059W,48899,6861.119,94.265,488.861,477.108,0,
GENERATED VIA SPACETRACK.ORG API,18 SPCS,48899,SPACEBEE-110,PAYLOAD,U,21059W,2023/4/3 8:01,910656,15.27645496,0.0008499,97.5857,229.3649,176.7087,183.421,0,999,9798,0.0016302,0.00044236,0,3879059,0 SPACEBEE-110,1 48899U 21059W   23093.33469804  .00044236  00000-0  16302-2 0  9992,2 48899  97.5857 229.3649 0008499 176.7087 183.4210 15.27645496 97983,2021-059W,48899,6860.99,94.263,488.686,477.024,0,
GENERATED VIA SPACETRACK.ORG API,18 SPCS,48899,SPACEBEE-110,PAYLOAD,U,21059W,2023/4/3 8:01,910656,15.27645496,0.0008499,97.5857,229.3649,176.7087,183.421,0,999,9798,0.0016302,0.00044236,0,3879273,0 SPACEBEE-110,1 48899U 21059W   23093.33469804  .00044236  00000-0  16302-2 0  9992,2 48899  97.5857 229.3649 0008499 176.7087 183.4210 15.27645496 97983,2021-059W,48899,6860.99,94.263,488.686,477.024,0,
GENERATED VIA SPACETRACK.ORG API,18 SPCS,48899,SPACEBEE-110,PAYLOAD,U,21059W,2023/4/4 7:36,594944,15.27729597,0.0008515,97.5862,230.3647,173.4893,186.6458,0,999,9813,0.0016555,0.00045043,0,3879974,0 SPACEBEE-110,1 48899U 21059W   23094.31720596  .00045043  00000-0  16555-2 0  9996,2 48899  97.5862 230.3647 0008515 173.4893 186.6458 15.27729597 98139,2021-059W,48899,6860.738,94.258,488.445,476.761,0,
GENERATED VIA SPACETRACK.ORG API,18 SPCS,48899,SPACEBEE-110,PAYLOAD,U,21059W,2023/4/4 21:45,571904,15.27774219,0.0008517,97.5867,230.9645,171.468,188.6705,0,999,9822,0.0013755,0.00037425,0,3880211,0 SPACEBEE-110,1 48899U 21059W   23094.90668486  .00037425  00000-0  13755-2 0  9994,2 48899  97.5867 230.9645 0008517 171.4680 188.6705 15.27774219 98220,2021-059W,48899,6860.605,94.255,488.313,476.626,0,
GENERATED VIA SPACETRACK.ORG API,18 SPCS,48899,SPACEBEE-110,PAYLOAD,U,21059W,2023/4/4 21:45,571904,15.27774219,0.0008517,97.5867,230.9645,171.468,188.6705,0,999,9822,0.0013755,0.00037425,0,3880524,0 SPACEBEE-110,1 48899U 21059W   23094.90668486  .00037425  00000-0  13755-2 0  9994,2 48899  97.5867 230.9645 0008517 171.4680 188.6705 15.27774219 98220,2021-059W,48899,6860.605,94.255,488.313,476.626,0,
